{
  "type": "FeatureCollection",
  "features": [
    {
      "type": "Feature",
      "properties": {
        "norad_id": 42917,
        "name": "QZS-3 (QZSS/PRN 199)",
        "group": "gnss",
        "lat": 0.005427600020370859,
        "lon": 60.64268888229144,
        "alt_km": 35793.434021332985,
        "timestamp": "2025-12-17T13:48:37.797821+00:00",
        "meta_object_name": "QZS-3 (QZSS/PRN 199)",
        "meta_object_id": "2017-048A",
        "meta_epoch": "2025-12-17T05:22:00.823296",
        "meta_mean_motion": 1.00267643,
        "meta_eccentricity": 0.00017834,
        "meta_inclination": 0.0265,
        "meta_ra_of_asc_node": 199.8718,
        "meta_arg_of_pericenter": 76.54,
        "meta_mean_anomaly": 17.2355,
        "meta_ephemeris_type": 0,
        "meta_classification_type": "U",
        "meta_norad_cat_id": 42917,
        "meta_element_set_no": 999,
        "meta_rev_at_epoch": 3043,
        "meta_bstar": 0,
        "meta_mean_motion_dot": 0,
        "meta_mean_motion_ddot": 0,
        "tle_line1": "1 42917U 17048A   25351.22362064  .00000000  00000+0  00000+0 0  9992",
        "tle_line2": "2 42917   0.0265 199.8718 0001783  76.5400  17.2355  1.00267643 30434"
      },
      "geometry": {
        "type": "Point",
        "coordinates": [
          60.64268888229144,
          0.005427600020370859
        ]
      }
    },
    {
      "type": "Feature",
      "properties": {
        "norad_id": 42939,
        "name": "COSMOS 2522 (752)",
        "group": "gnss",
        "lat": 37.54203136631782,
        "lon": -139.9764145882556,
        "alt_km": 19141.85309739171,
        "timestamp": "2025-12-17T13:48:37.797832+00:00",
        "meta_object_name": "COSMOS 2522 (752)",
        "meta_object_id": "2017-055A",
        "meta_epoch": "2025-12-16T02:41:16.915776",
        "meta_mean_motion": 2.13102063,
        "meta_eccentricity": 0.00063883,
        "meta_inclination": 64.0761,
        "meta_ra_of_asc_node": 198.1142,
        "meta_arg_of_pericenter": 224.0896,
        "meta_mean_anomaly": 135.9399,
        "meta_ephemeris_type": 0,
        "meta_classification_type": "U",
        "meta_norad_cat_id": 42939,
        "meta_element_set_no": 999,
        "meta_rev_at_epoch": 6407,
        "meta_bstar": 0,
        "meta_mean_motion_dot": 1.09e-06,
        "meta_mean_motion_ddot": 0,
        "tle_line1": "1 42939U 17055A   25350.11200134  .00000109  00000+0  00000+0 0  9990",
        "tle_line2": "2 42939  64.0761 198.1142 0006388 224.0896 135.9399  2.13102063 64079"
      },
      "geometry": {
        "type": "Point",
        "coordinates": [
          -139.9764145882556,
          37.54203136631782
        ]
      }
    },
    {
      "type": "Feature",
      "properties": {
        "norad_id": 42965,
        "name": "QZS-4 (QZSS/PRN 195)",
        "group": "gnss",
        "lat": 40.01349257084223,
        "lon": 69.12815349794046,
        "alt_km": 38947.69360465977,
        "timestamp": "2025-12-17T13:48:37.797844+00:00",
        "meta_object_name": "QZS-4 (QZSS/PRN 195)",
        "meta_object_id": "2017-062A",
        "meta_epoch": "2025-12-16T20:48:41.404032",
        "meta_mean_motion": 1.00252046,
        "meta_eccentricity": 0.07515882,
        "meta_inclination": 40.2238,
        "meta_ra_of_asc_node": 345.8181,
        "meta_arg_of_pericenter": 271.6391,
        "meta_mean_anomaly": 276.5319,
        "meta_ephemeris_type": 0,
        "meta_classification_type": "U",
        "meta_norad_cat_id": 42965,
        "meta_element_set_no": 999,
        "meta_rev_at_epoch": 2997,
        "meta_bstar": 0,
        "meta_mean_motion_dot": -3.46e-06,
        "meta_mean_motion_ddot": 0,
        "tle_line1": "1 42965U 17062A   25350.86714588 -.00000346  00000+0  00000+0 0  9996",
        "tle_line2": "2 42965  40.2238 345.8181 0751588 271.6391 276.5319  1.00252046 29970"
      },
      "geometry": {
        "type": "Point",
        "coordinates": [
          69.12815349794046,
          40.01349257084223
        ]
      }
    },
    {
      "type": "Feature",
      "properties": {
        "norad_id": 43001,
        "name": "BEIDOU-3 M1 (C19)",
        "group": "gnss",
        "lat": -36.01787296468636,
        "lon": 40.38730081279577,
        "alt_km": 21506.925243631344,
        "timestamp": "2025-12-17T13:48:37.797855+00:00",
        "meta_object_name": "BEIDOU-3 M1 (C19)",
        "meta_object_id": "2017-069A",
        "meta_epoch": "2025-12-17T02:31:31.300896",
        "meta_mean_motion": 1.86231373,
        "meta_eccentricity": 0.00093891,
        "meta_inclination": 56.5309,
        "meta_ra_of_asc_node": 69.0894,
        "meta_arg_of_pericenter": 302.653,
        "meta_mean_anomaly": 57.2803,
        "meta_ephemeris_type": 0,
        "meta_classification_type": "U",
        "meta_norad_cat_id": 43001,
        "meta_element_set_no": 999,
        "meta_rev_at_epoch": 5521,
        "meta_bstar": 0,
        "meta_mean_motion_dot": -7.5e-07,
        "meta_mean_motion_ddot": 0,
        "tle_line1": "1 43001U 17069A   25351.10522339 -.00000075  00000+0  00000+0 0  9993",
        "tle_line2": "2 43001  56.5309  69.0894 0009389 302.6530  57.2803  1.86231373 55214"
      },
      "geometry": {
        "type": "Point",
        "coordinates": [
          40.38730081279577,
          -36.01787296468636
        ]
      }
    },
    {
      "type": "Feature",
      "properties": {
        "norad_id": 43002,
        "name": "BEIDOU-3 M2 (C20)",
        "group": "gnss",
        "lat": -2.8650907693270256,
        "lon": 67.22733555424607,
        "alt_km": 21512.54488582438,
        "timestamp": "2025-12-17T13:48:37.797865+00:00",
        "meta_object_name": "BEIDOU-3 M2 (C20)",
        "meta_object_id": "2017-069B",
        "meta_epoch": "2025-12-17T01:02:46.646016",
        "meta_mean_motion": 1.86230935,
        "meta_eccentricity": 0.00064468,
        "meta_inclination": 56.5305,
        "meta_ra_of_asc_node": 69.1275,
        "meta_arg_of_pericenter": 330.7848,
        "meta_mean_anomaly": 29.2027,
        "meta_ephemeris_type": 0,
        "meta_classification_type": "U",
        "meta_norad_cat_id": 43002,
        "meta_element_set_no": 999,
        "meta_rev_at_epoch": 5520,
        "meta_bstar": 0,
        "meta_mean_motion_dot": -7.5e-07,
        "meta_mean_motion_ddot": 0,
        "tle_line1": "1 43002U 17069B   25351.04359544 -.00000075  00000+0  00000+0 0  9993",
        "tle_line2": "2 43002  56.5305  69.1275 0006446 330.7848  29.2027  1.86230935 55209"
      },
      "geometry": {
        "type": "Point",
        "coordinates": [
          67.22733555424607,
          -2.8650907693270256
        ]
      }
    },
    {
      "type": "Feature",
      "properties": {
        "norad_id": 43055,
        "name": "GSAT0215 (GALILEO 19)",
        "group": "gnss",
        "lat": -48.31293425470873,
        "lon": 97.98962036093317,
        "alt_km": 23228.624016646892,
        "timestamp": "2025-12-17T13:48:37.797878+00:00",
        "meta_object_name": "GSAT0215 (GALILEO 19)",
        "meta_object_id": "2017-079A",
        "meta_epoch": "2025-12-11T21:30:24.060384",
        "meta_mean_motion": 1.704739,
        "meta_eccentricity": 0.00012658,
        "meta_inclination": 55.1303,
        "meta_ra_of_asc_node": 226.661,
        "meta_arg_of_pericenter": 350.6161,
        "meta_mean_anomaly": 9.46,
        "meta_ephemeris_type": 0,
        "meta_classification_type": "U",
        "meta_norad_cat_id": 43055,
        "meta_element_set_no": 999,
        "meta_rev_at_epoch": 4979,
        "meta_bstar": 0,
        "meta_mean_motion_dot": 1.3e-07,
        "meta_mean_motion_ddot": 0,
        "tle_line1": "1 43055U 17079A   25345.89611181  .00000013  00000+0  00000+0 0  9997",
        "tle_line2": "2 43055  55.1303 226.6610 0001265 350.6161   9.4600  1.70473900 49794"
      },
      "geometry": {
        "type": "Point",
        "coordinates": [
          97.98962036093317,
          -48.31293425470873
        ]
      }
    },
    {
      "type": "Feature",
      "properties": {
        "norad_id": 43056,
        "name": "GSAT0216 (GALILEO 20)",
        "group": "gnss",
        "lat": 48.93843402935832,
        "lon": -80.37994716676111,
        "alt_km": 23218.143802404473,
        "timestamp": "2025-12-17T13:48:37.797889+00:00",
        "meta_object_name": "GSAT0216 (GALILEO 20)",
        "meta_object_id": "2017-079B",
        "meta_epoch": "2025-12-16T21:07:19.515072",
        "meta_mean_motion": 1.70474167,
        "meta_eccentricity": 0.00024195,
        "meta_inclination": 55.129,
        "meta_ra_of_asc_node": 226.5236,
        "meta_arg_of_pericenter": 322.2527,
        "meta_mean_anomaly": 37.829,
        "meta_ephemeris_type": 0,
        "meta_classification_type": "U",
        "meta_norad_cat_id": 43056,
        "meta_element_set_no": 999,
        "meta_rev_at_epoch": 4989,
        "meta_bstar": 0,
        "meta_mean_motion_dot": 5.3e-07,
        "meta_mean_motion_ddot": 0,
        "tle_line1": "1 43056U 17079B   25350.88008698  .00000053  00000+0  00000+0 0  9990",
        "tle_line2": "2 43056  55.1290 226.5236 0002419 322.2527  37.8290  1.70474167 49893"
      },
      "geometry": {
        "type": "Point",
        "coordinates": [
          -80.37994716676111,
          48.93843402935832
        ]
      }
    }
  ]
}